[{"OBJECT_NAME":"TDRS 3","OBJECT_ID":"1988-091B","EPOCH":"2026-04-26T21:47:38.620896","MEAN_MOTION":1.00274944,"ECCENTRICITY":0.00409687,"INCLINATION":12.641,"RA_OF_ASC_NODE":341.3448,"ARG_OF_PERICENTER":356.1807,"MEAN_ANOMALY":155.4467,"EPHEMERIS_TYPE":0,"CLASSIFICATION_TYPE":"U","NORAD_CAT_ID":19548,"ELEMENT_SET_NO":999,"REV_AT_EPOCH":12487,"BSTAR":0,"MEAN_MOTION_DOT":-3.11e-6,"MEAN_MOTION_DDOT":0},{"OBJECT_NAME":"HST","OBJECT_ID":"1990-037B","EPOCH":"2026-04-27T05:10:45.771456","MEAN_MOTION":15.30170094,"ECCENTRICITY":0.00016627,"INCLINATION":28.4746,"RA_OF_ASC_NODE":68.7822,"ARG_OF_PERICENTER":301.5243,"MEAN_ANOMALY":58.519,"EPHEMERIS_TYPE":0,"CLASSIFICATION_TYPE":"U","NORAD_CAT_ID":20580,"ELEMENT_SET_NO":999,"REV_AT_EPOCH":78075,"BSTAR":0.00026301973,"MEAN_MOTION_DOT":8.137e-5,"MEAN_MOTION_DDOT":0},{"OBJECT_NAME":"TDRS 5","OBJECT_ID":"1991-054B","EPOCH":"2026-04-27T06:18:41.886720","MEAN_MOTION":1.00271257,"ECCENTRICITY":0.00078704,"INCLINATION":14.0782,"RA_OF_ASC_NODE":354.1601,"ARG_OF_PERICENTER":285.5438,"MEAN_ANOMALY":222.5083,"EPHEMERIS_TYPE":0,"CLASSIFICATION_TYPE":"U","NORAD_CAT_ID":21639,"ELEMENT_SET_NO":999,"REV_AT_EPOCH":12720,"BSTAR":0,"MEAN_MOTION_DOT":7.3e-7,"MEAN_MOTION_DDOT":0},{"OBJECT_NAME":"TDRS 6","OBJECT_ID":"1993-003B","EPOCH":"2026-04-27T06:33:05.574816","MEAN_MOTION":1.00273363,"ECCENTRICITY":0.00060058,"INCLINATION":14.1825,"RA_OF_ASC_NODE":357.4385,"ARG_OF_PERICENTER":178.9992,"MEAN_ANOMALY":91.3449,"EPHEMERIS_TYPE":0,"CLASSIFICATION_TYPE":"U","NORAD_CAT_ID":22314,"ELEMENT_SET_NO":999,"REV_AT_EPOCH":12189,"BSTAR":0,"MEAN_MOTION_DOT":-3.06e-6,"MEAN_MOTION_DDOT":0},{"OBJECT_NAME":"TDRS 7","OBJECT_ID":"1995-035B","EPOCH":"2026-04-27T03:33:21.550176","MEAN_MOTION":1.00278005,"ECCENTRICITY":0.00109052,"INCLINATION":13.3989,"RA_OF_ASC_NODE":348.5421,"ARG_OF_PERICENTER":64.9519,"MEAN_ANOMALY":304.0713,"EPHEMERIS_TYPE":0,"CLASSIFICATION_TYPE":"U","NORAD_CAT_ID":23613,"ELEMENT_SET_NO":999,"REV_AT_EPOCH":11274,"BSTAR":0,"MEAN_MOTION_DOT":-2.52e-6,"MEAN_MOTION_DDOT":0},{"OBJECT_NAME":"ISS (ZARYA)","OBJECT_ID":"1998-067A","EPOCH":"2026-04-27T04:01:32.075040","MEAN_MOTION":15.48984622,"ECCENTRICITY":0.00070425,"INCLINATION":51.6319,"RA_OF_ASC_NODE":192.6271,"ARG_OF_PERICENTER":355.6641,"MEAN_ANOMALY":4.4286,"EPHEMERIS_TYPE":0,"CLASSIFICATION_TYPE":"U","NORAD_CAT_ID":25544,"ELEMENT_SET_NO":999,"REV_AT_EPOCH":56384,"BSTAR":0.00020199612,"MEAN_MOTION_DOT":0.00010693,"MEAN_MOTION_DDOT":0},{"OBJECT_NAME":"TERRA","OBJECT_ID":"1999-068A","EPOCH":"2026-04-27T06:31:39.515232","MEAN_MOTION":14.61061586,"ECCENTRICITY":0.00031399,"INCLINATION":97.9501,"RA_OF_ASC_NODE":168.8266,"ARG_OF_PERICENTER":53.9282,"MEAN_ANOMALY":10.619,"EPHEMERIS_TYPE":0,"CLASSIFICATION_TYPE":"U","NORAD_CAT_ID":25994,"ELEMENT_SET_NO":999,"REV_AT_EPOCH":40217,"BSTAR":9.6778964e-5,"MEAN_MOTION_DOT":4.31e-6,"MEAN_MOTION_DDOT":0},{"OBJECT_NAME":"TDRS 8","OBJECT_ID":"2000-034A","EPOCH":"2026-04-26T21:38:29.573952","MEAN_MOTION":1.00276985,"ECCENTRICITY":0.000623,"INCLINATION":12.6047,"RA_OF_ASC_NODE":31.7524,"ARG_OF_PERICENTER":344.7779,"MEAN_ANOMALY":247.6634,"EPHEMERIS_TYPE":0,"CLASSIFICATION_TYPE":"U","NORAD_CAT_ID":26388,"ELEMENT_SET_NO":999,"REV_AT_EPOCH":9466,"BSTAR":0,"MEAN_MOTION_DOT":-2.02e-6,"MEAN_MOTION_DDOT":0},{"OBJECT_NAME":"TIMED","OBJECT_ID":"2001-055B","EPOCH":"2026-04-27T00:35:08.015712","MEAN_MOTION":14.95169763,"ECCENTRICITY":0.00017275,"INCLINATION":74.0683,"RA_OF_ASC_NODE":338.0281,"ARG_OF_PERICENTER":210.3841,"MEAN_ANOMALY":149.7244,"EPHEMERIS_TYPE":0,"CLASSIFICATION_TYPE":"U","NORAD_CAT_ID":26998,"ELEMENT_SET_NO":999,"REV_AT_EPOCH":32317,"BSTAR":0.00010159228,"MEAN_MOTION_DOT":1.076e-5,"MEAN_MOTION_DDOT":0},{"OBJECT_NAME":"AQUA","OBJECT_ID":"2002-022A","EPOCH":"2026-04-27T06:49:14.752992","MEAN_MOTION":14.62076657,"ECCENTRICITY":0.00020497,"INCLINATION":98.4245,"RA_OF_ASC_NODE":85.5642,"ARG_OF_PERICENTER":94.5121,"MEAN_ANOMALY":10.6715,"EPHEMERIS_TYPE":0,"CLASSIFICATION_TYPE":"U","NORAD_CAT_ID":27424,"ELEMENT_SET_NO":999,"REV_AT_EPOCH":27583,"BSTAR":0.00019381396,"MEAN_MOTION_DOT":9.24e-6,"MEAN_MOTION_DDOT":0},{"OBJECT_NAME":"SORCE","OBJECT_ID":"2003-004A","EPOCH":"2026-04-27T06:16:46.717248","MEAN_MOTION":15.03429856,"ECCENTRICITY":0.00163272,"INCLINATION":39.99,"RA_OF_ASC_NODE":192.1629,"ARG_OF_PERICENTER":43.3459,"MEAN_ANOMALY":316.8616,"EPHEMERIS_TYPE":0,"CLASSIFICATION_TYPE":"U","NORAD_CAT_ID":27651,"ELEMENT_SET_NO":999,"REV_AT_EPOCH":26423,"BSTAR":0.00025841767,"MEAN_MOTION_DOT":3.438e-5,"MEAN_MOTION_DDOT":0},{"OBJECT_NAME":"AURA","OBJECT_ID":"2004-026A","EPOCH":"2026-04-27T05:56:14.454528","MEAN_MOTION":14.61248172,"ECCENTRICITY":0.00017004,"INCLINATION":98.3382,"RA_OF_ASC_NODE":73.2937,"ARG_OF_PERICENTER":84.8439,"MEAN_ANOMALY":275.2956,"EPHEMERIS_TYPE":0,"CLASSIFICATION_TYPE":"U","NORAD_CAT_ID":28376,"ELEMENT_SET_NO":999,"REV_AT_EPOCH":15877,"BSTAR":0.00019332187,"MEAN_MOTION_DOT":9.05e-6,"MEAN_MOTION_DDOT":0},{"OBJECT_NAME":"SWIFT","OBJECT_ID":"2004-047A","EPOCH":"2026-04-26T14:02:47.411808","MEAN_MOTION":15.63634576,"ECCENTRICITY":0.000168,"INCLINATION":20.5524,"RA_OF_ASC_NODE":221.4796,"ARG_OF_PERICENTER":332.8404,"MEAN_ANOMALY":27.1953,"EPHEMERIS_TYPE":0,"CLASSIFICATION_TYPE":"U","NORAD_CAT_ID":28485,"ELEMENT_SET_NO":999,"REV_AT_EPOCH":17876,"BSTAR":0.0005222,"MEAN_MOTION_DOT":0.0005191,"MEAN_MOTION_DDOT":0},{"OBJECT_NAME":"THEMIS A","OBJECT_ID":"2007-004A","EPOCH":"2026-04-26T06:26:00.073824","MEAN_MOTION":0.87844739,"ECCENTRICITY":0.83823537,"INCLINATION":7.6209,"RA_OF_ASC_NODE":114.2897,"ARG_OF_PERICENTER":189.0072,"MEAN_ANOMALY":126.359,"EPHEMERIS_TYPE":0,"CLASSIFICATION_TYPE":"U","NORAD_CAT_ID":30580,"ELEMENT_SET_NO":999,"REV_AT_EPOCH":4082,"BSTAR":0.0070719755,"MEAN_MOTION_DOT":7.0e-7,"MEAN_MOTION_DDOT":0},{"OBJECT_NAME":"THEMIS D","OBJECT_ID":"2007-004D","EPOCH":"2026-04-24T07:08:22.987392","MEAN_MOTION":0.87834113,"ECCENTRICITY":0.8339467,"INCLINATION":7.1883,"RA_OF_ASC_NODE":82.6457,"ARG_OF_PERICENTER":223.1112,"MEAN_ANOMALY":208.3988,"EPHEMERIS_TYPE":0,"CLASSIFICATION_TYPE":"U","NORAD_CAT_ID":30797,"ELEMENT_SET_NO":999,"REV_AT_EPOCH":4060,"BSTAR":0,"MEAN_MOTION_DOT":-1.7e-7,"MEAN_MOTION_DDOT":0},{"OBJECT_NAME":"THEMIS E","OBJECT_ID":"2007-004E","EPOCH":"2026-04-27T06:48:33.259392","MEAN_MOTION":0.88331996,"ECCENTRICITY":0.84481742,"INCLINATION":5.7374,"RA_OF_ASC_NODE":101.1127,"ARG_OF_PERICENTER":206.3966,"MEAN_ANOMALY":155.0775,"EPHEMERIS_TYPE":0,"CLASSIFICATION_TYPE":"U","NORAD_CAT_ID":30798,"ELEMENT_SET_NO":999,"REV_AT_EPOCH":6547,"BSTAR":0,"MEAN_MOTION_DOT":3.4e-7,"MEAN_MOTION_DDOT":0},{"OBJECT_NAME":"FGRST (GLAST)","OBJECT_ID":"2008-029A","EPOCH":"2026-04-27T06:45:39.813984","MEAN_MOTION":15.23669823,"ECCENTRICITY":0.00087334,"INCLINATION":25.5813,"RA_OF_ASC_NODE":197.8669,"ARG_OF_PERICENTER":86.5266,"MEAN_ANOMALY":273.6271,"EPHEMERIS_TYPE":0,"CLASSIFICATION_TYPE":"U","NORAD_CAT_ID":33053,"ELEMENT_SET_NO":999,"REV_AT_EPOCH":98806,"BSTAR":0.00014839988,"MEAN_MOTION_DOT":4.002e-5,"MEAN_MOTION_DDOT":0}]
